EUTELSAT QUANTUM        
1 49056U 21069B   26015.45361880  .00000144  00000+0  00000+0 0  9998
2 49056   0.0098  26.4602 0003318 275.0627  24.3862  1.00273716 16398
EUTELSAT KONNECT VHTS   
1 53765U 22110A   26015.58742795  .00000035  00000+0  00000+0 0  9999
2 53765   0.0565  97.7408 0002660 172.9889  58.5138  1.00269776  5303
EUTELSAT HOTBIRD 13F    
1 54048U 22134A   26014.94747034  .00000106  00000+0  00000+0 0  9999
2 54048   0.0592 284.1364 0002060  81.6599 102.6764  1.00272138 11847
EUTELSAT HOTBIRD 13G    
1 54225U 22146A   26014.94747034  .00000106  00000+0  00000+0 0  9999
2 54225   0.0618 228.1206 0002032 307.9549 292.4053  1.00271967  5935
EUTELSAT 10B            
1 54259U 22157A   26015.58881462  .00000086  00000+0  00000+0 0  9990
2 54259   0.0585  95.0793 0000865 356.6517 245.2365  1.00271816 11498
EUTELSAT 36D            
1 59346U 24059A   26015.59392799  .00000000  00000+0  00000+0 0  9992
2 59346   0.0288  58.6574 0000276 334.4871 331.5450  1.00271291  6614
